{
    "links": {
        "self": "http://www.neowsapp.com/rest/v1/neo/3826898?api_key=iIulBulltgU6a56xZRHN4H3l9WmuAYTsLGpBGhQ2"
    },
    "id": "3826898",
    "neo_reference_id": "3826898",
    "name": "(2018 QO)",
    "designation": "2018 QO",
    "nasa_jpl_url": "http://ssd.jpl.nasa.gov/sbdb.cgi?sstr=3826898",
    "absolute_magnitude_h": 24.7,
    "estimated_diameter": {
        "kilometers": {
            "estimated_diameter_min": 0.0305179233,
            "estimated_diameter_max": 0.0682401509
        },
        "meters": {
            "estimated_diameter_min": 30.5179232594,
            "estimated_diameter_max": 68.2401509401
        },
        "miles": {
            "estimated_diameter_min": 0.0189629525,
            "estimated_diameter_max": 0.0424024508
        },
        "feet": {
            "estimated_diameter_min": 100.1244233463,
            "estimated_diameter_max": 223.8850168104
        }
    },
    "is_potentially_hazardous_asteroid": false,
    "close_approach_data": [
        {
            "close_approach_date": "2018-08-13",
            "close_approach_date_full": "2018-Aug-13 16:02",
            "epoch_date_close_approach": 1534176120000,
            "relative_velocity": {
                "kilometers_per_second": "11.5497001466",
                "kilometers_per_hour": "41578.9205275976",
                "miles_per_hour": "25835.5242578287"
            },
            "miss_distance": {
                "astronomical": "0.1436892376",
                "lunar": "55.8951134264",
                "kilometers": "21495603.886883912",
                "miles": "13356748.8946335056"
            },
            "orbiting_body": "Earth"
        }
    ],
    "orbital_data": {
        "orbit_id": "1",
        "orbit_determination_date": "2018-08-22 09:12:05",
        "first_observation_date": "2018-08-18",
        "last_observation_date": "2018-08-21",
        "data_arc_in_days": 3,
        "observations_used": 10,
        "orbit_uncertainty": "9",
        "minimum_orbit_intersection": ".143682",
        "jupiter_tisserand_invariant": "4.460",
        "epoch_osculation": "2458349.5",
        "eccentricity": ".2627424577401395",
        "semi_major_axis": "1.489043353584972",
        "inclination": "20.64234617772729",
        "ascending_node_longitude": "148.6664058827919",
        "orbital_period": "663.6810852613623",
        "perihelion_distance": "1.097808443182437",
        "perihelion_argument": "134.6563448816911",
        "aphelion_distance": "1.880278263987507",
        "perihelion_time": "2458304.895045742017",
        "mean_anomaly": "24.19502964522518",
        "mean_motion": ".5424291997989207",
        "equinox": "J2000",
        "orbit_class": {
            "orbit_class_type": "AMO",
            "orbit_class_description": "Near-Earth asteroid orbits similar to that of 1221 Amor",
            "orbit_class_range": "1.017 AU < q (perihelion) < 1.3 AU"
        }
    },
    "is_sentry_object": false
}